NORAD_CAT_ID,OBJECT_NAME,OBJECT_TYPE,EPOCH,MEAN_MOTION,ECCENTRICITY,INCLINATION,RA_OF_ASC_NODE,ARG_OF_PERICENTER,MEAN_ANOMALY,BSTAR,MEAN_MOTION_DOT,MEAN_MOTION_DDOT,TLE_LINE0,TLE_LINE1,TLE_LINE2,SEMIMAJOR_AXIS,PERIOD,APOGEE,PERIGEE,DECAYED
52483.0,STARLINK-3875,PAYLOAD,2023-07-10 02:54:03,15.08841607,0.0001383,53.2177,99.643,105.7583,254.3562,4.3067e-05,3.98e-06,0.0,0 STARLINK-3875,1 52483U 22049AJ  23191.12087474  .00000398  00000-0  43067-4 0  9992,2 52483  53.2177  99.6430 0001383 105.7583 254.3562 15.08841607 65574,6917.875,95.437,540.697,538.784,0.0
52483.0,STARLINK-3875,PAYLOAD,2023-07-11 02:44:50,15.08837369,0.0001356,53.2176,95.182,105.3088,254.8054,8.6967e-05,1.096e-05,0.0,0 STARLINK-3875,1 52483U 22049AJ  23192.11447777  .00001096  00000-0  86967-4 0  9990,2 52483  53.2176  95.1820 0001356 105.3088 254.8054 15.08837369 65721,6917.888,95.438,540.691,538.815,0.0
52483.0,STARLINK-3875,PAYLOAD,2023-07-12 10:32:33,15.08842261,0.0001204,53.2173,89.2327,90.9209,269.1921,-3.1094e-06,-3.37e-06,0.0,0 STARLINK-3875,1 52483U 22049AJ  23193.43927741 -.00000337  00000-0 -31094-5 0  9991,2 52483  53.2173  89.2327 0001204  90.9209 269.1921 15.08842261 65921,6917.873,95.437,540.571,538.906,0.0
52483.0,STARLINK-3875,PAYLOAD,2023-07-13 23:06:25,15.08845191,0.0001306,53.2174,82.3934,91.9748,268.1394,-5.874e-06,-3.81e-06,0.0,0 STARLINK-3875,1 52483U 22049AJ  23194.96279555 -.00000381  00000-0 -58740-5 0  9999,2 52483  53.2174  82.3934 0001306  91.9748 268.1394 15.08845191 66156,6917.865,95.437,540.633,538.826,0.0
52483.0,STARLINK-3875,PAYLOAD,2023-07-15 02:07:58,15.0884966,0.0001184,53.2175,77.3358,91.6248,268.4879,6.9663e-05,8.21e-06,0.0,0 STARLINK-3875,1 52483U 22049AJ  23196.08886895  .00000821  00000-0  69663-4 0  9997,2 52483  53.2175  77.3358 0001184  91.6248 268.4879 15.08849660 66322,6917.851,95.437,540.535,538.897,0.0
52483.0,STARLINK-3875,PAYLOAD,2023-07-15 16:26:27,15.08832733,0.0001003,53.2172,74.6609,103.2383,256.8721,-5.413e-05,-1.149e-05,0.0,0 STARLINK-3875,1 52483U 22049AJ  23196.68504424 -.00001149  00000-0 -54130-4 0  9997,2 52483  53.2172  74.6609 0001003 103.2383 256.8721 15.08832733 66418,6917.903,95.438,540.461,539.074,0.0
52483.0,STARLINK-3875,PAYLOAD,2023-07-16 01:58:45,15.08846115,0.0001055,53.2171,72.8774,99.0443,261.0668,5.7074e-05,6.21e-06,0.0,0 STARLINK-3875,1 52483U 22049AJ  23197.08247244  .00000621  00000-0  57074-4 0  9998,2 52483  53.2171  72.8774 0001055  99.0443 261.0668 15.08846115 66479,6917.862,95.437,540.457,538.997,0.0
52483.0,STARLINK-3875,PAYLOAD,2023-07-16 08:20:18,15.08840964,0.0001024,53.217,71.6877,96.4576,263.6533,-1.1184e-08,-2.88e-06,0.0,0 STARLINK-3875,1 52483U 22049AJ  23197.34743709 -.00000288  00000-0 -11184-7 0  9990,2 52483  53.2170  71.6877 0001024  96.4576 263.6533 15.08840964 66513,6917.877,95.437,540.451,539.034,0.0
52483.0,STARLINK-3875,PAYLOAD,2023-07-17 17:43:24,15.08840356,0.0001102,53.2184,65.4452,112.6657,247.4451,4.7888e-05,4.74e-06,0.0,0 STARLINK-3875,1 52483U 22049AJ  23198.73848058  .00000474  00000-0  47888-4 0  9999,2 52483  53.2184  65.4452 0001102 112.6657 247.4451 15.08840356 66723,6917.879,95.438,540.507,538.982,0.0
52483.0,STARLINK-3875,PAYLOAD,2023-07-18 01:40:19,15.08847321,0.0001114,53.2184,63.9586,110.9709,249.1402,0.00010583,1.397e-05,0.0,0 STARLINK-3875,1 52483U 22049AJ  23199.06967439  .00001397  00000-0  10583-3 0  9997,2 52483  53.2184  63.9586 0001114 110.9709 249.1402 15.08847321 66775,6917.858,95.437,540.494,538.952,0.0
52483.0,STARLINK-3875,PAYLOAD,2023-07-18 17:34:12,15.08830523,0.000103,53.2181,60.9838,97.2306,262.8804,6.9741e-05,8.22e-06,0.0,0 STARLINK-3875,1 52483U 22049AJ  23199.73208789  .00000822  00000-0  69741-4 0  9990,2 52483  53.2181  60.9838 0001030  97.2306 262.8804 15.08830523 66871,6917.909,95.438,540.487,539.062,0.0
52483.0,STARLINK-3875,PAYLOAD,2023-07-19 19:00:22,15.08835272,0.0001166,53.2161,56.2248,83.1585,276.954,6.8273e-06,-1.79e-06,0.0,0 STARLINK-3875,1 52483U 22049AJ  23200.79193157 -.00000179  00000-0  68273-5 0  9997,2 52483  53.2161  56.2248 0001166  83.1585 276.9540 15.08835272 67033,6917.895,95.438,540.566,538.953,0.0
52483.0,STARLINK-3875,PAYLOAD,2023-07-20 23:37:18,15.08847933,9.96e-05,53.2174,50.8727,77.9196,282.1908,0.00012759,1.744e-05,0.0,0 STARLINK-3875,1 52483U 22049AJ  23201.98424015  .00001744  00000-0  12759-3 0  9993,2 52483  53.2174  50.8727 0000996  77.9196 282.1908 15.08847933 67212,6917.856,95.437,540.41,539.032,0.0
52483.0,STARLINK-3875,PAYLOAD,2023-07-21 17:06:33,15.08839843,0.0001174,53.2193,47.604,111.7664,248.3453,5.1862e-05,5.38e-06,0.0,0 STARLINK-3875,1 52483U 22049AJ  23202.71288657  .00000538  00000-0  51862-4 0  9994,2 52483  53.2193  47.6040 0001174 111.7664 248.3453 15.08839843 67323,6917.881,95.438,540.558,538.934,0.0
52483.0,STARLINK-3875,PAYLOAD,2023-07-24 00:45:04,15.0876513,0.0001347,53.2176,37.1937,113.475,246.6383,0.0010117,0.00015817,0.0,0 STARLINK-3875,1 52483U 22049AJ  23205.03130508  .00015817  00000-0  10117-2 0  9995,2 52483  53.2176  37.1937 0001347 113.4750 246.6383 15.08765130 68758,6918.109,95.442,540.906,539.042,0.0
52483.0,STARLINK-3875,PAYLOAD,2023-07-25 11:43:33,15.08830736,8.32e-05,53.2176,30.6513,94.8705,265.2382,-4.1444e-06,-3.54e-06,0.0,0 STARLINK-3875,1 52483U 22049AJ  23206.48857861 -.00000354  00000-0 -41444-5 0  9995,2 52483  53.2176  30.6513 0000832  94.8705 265.2382 15.08830736 68971,6917.909,95.438,540.349,539.198,0.0
52483.0,STARLINK-3875,PAYLOAD,2023-07-26 11:34:19,15.08837981,0.0001087,53.2179,26.1908,93.408,266.7037,4.3109e-05,3.98e-06,0.0,0 STARLINK-3875,1 52483U 22049AJ  23207.48217122  .00000398  00000-0  43109-4 0  9991,2 52483  53.2179  26.1908 0001087  93.4080 266.7037 15.08837981 69126,6917.887,95.438,540.504,539.0,0.0
52483.0,STARLINK-3875,PAYLOAD,2023-07-27 11:25:07,15.08831508,0.0001501,53.2149,21.7308,83.1798,276.9365,1.5658e-06,-2.63e-06,0.0,0 STARLINK-3875,1 52483U 22049AJ  23208.47577906 -.00000263  00000-0  15658-5 0  9991,2 52483  53.2149  21.7308 0001501  83.1798 276.9365 15.08831508 68193,6917.906,95.438,540.81,538.733,0.0
52483.0,STARLINK-3875,PAYLOAD,2023-07-27 17:46:39,15.08837718,0.0001345,53.2168,20.542,62.2741,297.8388,-9.7389e-05,-1.837e-05,0.0,0 STARLINK-3875,1 52483U 22049AJ  23208.74073969 -.00001837  00000-0 -97389-4 0  9990,2 52483  53.2168  20.5420 0001345  62.2741 297.8388 15.08837718 69319,6917.887,95.438,540.683,538.822,0.0
52483.0,STARLINK-3875,PAYLOAD,2023-07-28 04:54:21,15.08841395,0.0001378,53.2175,18.4609,72.0368,288.0774,-0.00010744,-1.997e-05,0.0,0 STARLINK-3875,1 52483U 22049AJ  23209.20441770 -.00001997  00000-0 -10744-3 0  9997,2 52483  53.2175  18.4609 0001378  72.0368 288.0774 15.08841395 68307,6917.876,95.437,540.694,538.788,0.0
52483.0,STARLINK-3875,PAYLOAD,2023-07-28 11:15:53,15.08845158,0.0001697,53.2167,17.2696,92.4323,267.6863,-2.1238e-06,-3.22e-06,0.0,0 STARLINK-3875,1 52483U 22049AJ  23209.46937391 -.00000322  00000-0 -21238-5 0  9997,2 52483  53.2167  17.2696 0001697  92.4323 267.6863 15.08845158 69429,6917.865,95.437,540.904,538.556,0.0
52483.0,STARLINK-3875,PAYLOAD,2023-07-28 17:37:26,15.08843421,0.0001306,53.2158,16.0798,77.7803,282.3336,0.00015113,2.118e-05,0.0,0 STARLINK-3875,1 52483U 22049AJ  23209.73433019  .00002118  00000-0  15113-3 0  9991,2 52483  53.2158  16.0798 0001306  77.7803 282.3336 15.08843421 68389,6917.87,95.437,540.638,538.831,0.0
52483.0,STARLINK-3875,PAYLOAD,2023-07-29 04:45:08,15.08835462,0.0001295,53.2171,14.0001,69.8335,290.2796,0.00016722,2.374e-05,0.0,0 STARLINK-3875,1 52483U 22049AJ  23210.19801550  .00002374  00000-0  16722-3 0  9993,2 52483  53.2171  14.0001 0001295  69.8335 290.2796 15.08835462 68450,6917.894,95.438,540.655,538.863,0.0
52483.0,STARLINK-3875,PAYLOAD,2023-07-30 10:57:28,15.08839124,0.0001203,53.2191,8.3505,77.0125,283.1002,6.3799e-05,7.28e-06,0.0,0 STARLINK-3875,1 52483U 22049AJ  23211.45657931  .00000728  00000-0  63799-4 0  9993,2 52483  53.2191   8.3505 0001203  77.0125 283.1002 15.08839124 68645,6917.883,95.438,540.58,538.916,0.0
52483.0,STARLINK-3875,PAYLOAD,2023-07-31 17:09:47,15.08845808,0.0001172,53.2193,2.7015,89.3818,270.7309,6.8236e-05,7.98e-06,0.0,0 STARLINK-3875,1 52483U 22049AJ  23212.71513366  .00000798  00000-0  68236-4 0  9994,2 52483  53.2193   2.7015 0001172  89.3818 270.7309 15.08845808 68830,6917.863,95.437,540.538,538.917,0.0
52483.0,STARLINK-3875,PAYLOAD,2023-08-01 20:11:21,15.08844408,0.0001109,53.218,357.6449,84.165,275.9469,0.00011212,1.497e-05,0.0,0 STARLINK-3875,1 52483U 22049AJ  23213.84121550  .00001497  00000-0  11212-3 0  9997,2 52483  53.2180 357.6449 0001109  84.1650 275.9469 15.08844408 69005,6917.867,95.437,540.499,538.965,0.0
52483.0,STARLINK-3875,PAYLOAD,2023-08-02 10:29:49,15.08835892,0.0001055,53.2174,354.968,86.6387,273.4726,7.6632e-05,9.32e-06,0.0,0 STARLINK-3875,1 52483U 22049AJ  23214.43738254  .00000932  00000-0  76632-4 0  9999,2 52483  53.2174 354.9680 0001055  86.6387 273.4726 15.08835892 69094,6917.893,95.438,540.488,539.028,0.0
52483.0,STARLINK-3875,PAYLOAD,2023-08-02 16:51:21,15.08846229,0.0001062,53.2177,353.7785,87.8477,272.2637,0.00011448,1.535e-05,0.0,0 STARLINK-3875,1 52483U 22049AJ  23214.70233571  .00001535  00000-0  11448-3 0  9994,2 52483  53.2177 353.7785 0001062  87.8477 272.2637 15.08846229 69130,6917.861,95.437,540.461,538.992,0.0
52483.0,STARLINK-3875,PAYLOAD,2023-08-04 08:36:00,15.08834863,0.0001248,53.2182,346.3448,92.5563,267.5572,-6.4684e-06,-3.91e-06,0.0,0 STARLINK-3875,1 52483U 22049AJ  23216.35834175 -.00000391  00000-0 -64684-5 0  9997,2 52483  53.2182 346.3448 0001248  92.5563 267.5572 15.08834863 69388,6917.896,95.438,540.624,538.898,0.0
52483.0,STARLINK-3875,PAYLOAD,2023-08-05 08:26:47,15.08844229,0.0001177,53.2177,341.8838,97.0966,263.016,6.8415e-05,8.01e-06,0.0,0 STARLINK-3875,1 52483U 22049AJ  23217.35193891  .00000801  00000-0  68415-4 0  9990,2 52483  53.2177 341.8838 0001177  97.0966 263.0160 15.08844229 69531,6917.867,95.437,540.547,538.918,0.0
